STARLINK-35922          
1 66502U 25263T   26068.21975393  .00023804  00000+0  87173-3 0  9993
2 66502  43.0093 353.6390 0003320 259.7702 100.2776 15.27578500 18821
2025-313BC              
1 67298U 25313BC  26068.18968176  .00075331  00000+0  26410-2 0  9997
2 67298  97.3985 144.8110 0008478 328.9209  31.1528 15.29126358  7890
